start=new Date('2023-04-27T00:00:00.000Z').valueOf();
sats=[{"INCLINATION":"70.0001","TLE_LINE2":"2 55660  70.0001 319.0951 0003859 273.5726  86.5028 15.69931684 11505","RA_OF_ASC_NODE":"319.0951","GP_ID":"230802614","RCS_SIZE":"LARGE","MEAN_MOTION_DDOT":"0.0000000000000","BSTAR":"0.00008946700000","FILE":"3894261","OBJECT_TYPE":"PAYLOAD","ECCENTRICITY":"0.00038590","APOAPSIS":"361.694","EPHEMERIS_TYPE":"0","OBJECT_NAME":"STARLINK-5467","TLE_LINE1":"1 55660U 23021AJ  23116.64646478  .00010563  00000-0  89467-4 0  9991","REV_AT_EPOCH":"1150","NORAD_CAT_ID":"55660","LAUNCH_DATE":"2023-02-17","SITE":"AFWTR","PERIAPSIS":"356.495","TIME_SYSTEM":"UTC","MEAN_ELEMENT_THEORY":"SGP4","ELEMENT_SET_NO":"999","CLASSIFICATION_TYPE":"U","ARG_OF_PERICENTER":"273.5726","DECAY_DATE":null,"SEMIMAJOR_AXIS":"6737.229","PERIOD":"91.724","COUNTRY_CODE":"US","CENTER_NAME":"EARTH","MEAN_MOTION_DOT":"0.00010563","REF_FRAME":"TEME","MEAN_ANOMALY":"86.5028","MEAN_MOTION":"15.69931684","EPOCH":"2023-04-26T15:30:54.556992","OBJECT_ID":"2023-021AJ"},{"GP_ID":"230802865","RCS_SIZE":"LARGE","MEAN_MOTION_DDOT":"0.0000000000000","BSTAR":"0.00029479000000","INCLINATION":"69.9983","TLE_LINE2":"2 55661  69.9983 319.0966 0004210 293.7077  66.3677 15.69950345 11504","RA_OF_ASC_NODE":"319.0966","REV_AT_EPOCH":"1150","NORAD_CAT_ID":"55661","OBJECT_TYPE":"PAYLOAD","FILE":"3894261","ECCENTRICITY":"0.00042100","APOAPSIS":"361.877","EPHEMERIS_TYPE":"0","OBJECT_NAME":"STARLINK-5475","TLE_LINE1":"1 55661U 23021AK  23116.64586565  .00035427  00000-0  29479-3 0  9994","MEAN_ELEMENT_THEORY":"SGP4","ELEMENT_SET_NO":"999","CLASSIFICATION_TYPE":"U","DECAY_DATE":null,"ARG_OF_PERICENTER":"293.7077","SEMIMAJOR_AXIS":"6737.176","LAUNCH_DATE":"2023-02-17","SITE":"AFWTR","PERIAPSIS":"356.205","TIME_SYSTEM":"UTC","MEAN_ANOMALY":"66.3677","MEAN_MOTION":"15.69950345","EPOCH":"2023-04-26T15:30:02.792160","OBJECT_ID":"2023-021AK","PERIOD":"91.723","COUNTRY_CODE":"US","CENTER_NAME":"EARTH","MEAN_MOTION_DOT":"0.00035427","REF_FRAME":"TEME"},{"MEAN_ELEMENT_THEORY":"SGP4","ELEMENT_SET_NO":"999","CLASSIFICATION_TYPE":"U","SEMIMAJOR_AXIS":"6737.172","ARG_OF_PERICENTER":"274.4204","DECAY_DATE":null,"LAUNCH_DATE":"2023-02-17","PERIAPSIS":"356.044","SITE":"AFWTR","TIME_SYSTEM":"UTC","MEAN_MOTION":"15.69951661","MEAN_ANOMALY":"85.6484","EPOCH":"2023-04-26T15:30:47.910240","OBJECT_ID":"2023-021AL","PERIOD":"91.723","COUNTRY_CODE":"US","CENTER_NAME":"EARTH","REF_FRAME":"TEME","MEAN_MOTION_DOT":"0.00021013","RCS_SIZE":"LARGE","GP_ID":"230801613","MEAN_MOTION_DDOT":"0.0000000000000","BSTAR":"0.00017585000000","TLE_LINE2":"2 55662  70.0060 319.0976 0004443 274.4204  85.6484 15.69951661 11503","INCLINATION":"70.0060","RA_OF_ASC_NODE":"319.0976","NORAD_CAT_ID":"55662","REV_AT_EPOCH":"1150","OBJECT_TYPE":"PAYLOAD","FILE":"3894261","EPHEMERIS_TYPE":"0","ECCENTRICITY":"0.00044430","APOAPSIS":"362.031","OBJECT_NAME":"STARLINK-5479","TLE_LINE1":"1 55662U 23021AL  23116.64638785  .00021013  00000-0  17585-3 0  9998"},{"CLASSIFICATION_TYPE":"U","SEMIMAJOR_AXIS":"6736.944","DECAY_DATE":null,"ARG_OF_PERICENTER":"268.7499","MEAN_ELEMENT_THEORY":"SGP4","ELEMENT_SET_NO":"999","TIME_SYSTEM":"UTC","LAUNCH_DATE":"2023-02-17","PERIAPSIS":"356.438","SITE":"AFWTR","OBJECT_ID":"2023-021AM","MEAN_MOTION":"15.70031328","MEAN_ANOMALY":"91.3294","EPOCH":"2023-04-26T21:36:16.134336","REF_FRAME":"TEME","MEAN_MOTION_DOT":"0.00047651","COUNTRY_CODE":"US","PERIOD":"91.718","CENTER_NAME":"EARTH","BSTAR":"0.00039405000000","RCS_SIZE":"LARGE","GP_ID":"230801863","MEAN_MOTION_DDOT":"0.0000000000000","TLE_LINE2":"2 55663  69.9985 318.3721 0003520 268.7499  91.3294 15.70031328 11542","INCLINATION":"69.9985","RA_OF_ASC_NODE":"318.3721","NORAD_CAT_ID":"55663","REV_AT_EPOCH":"1154","OBJECT_NAME":"STARLINK-5473","TLE_LINE1":"1 55663U 23021AM  23116.90018674  .00047651  00000-0  39405-3 0  9998","OBJECT_TYPE":"PAYLOAD","FILE":"3894261","EPHEMERIS_TYPE":"0","ECCENTRICITY":"0.00035200","APOAPSIS":"361.181"},{"OBJECT_ID":"2023-021AN","EPOCH":"2023-04-26T20:05:26.589984","MEAN_ANOMALY":"85.5652","MEAN_MOTION":"15.69944225","MEAN_MOTION_DOT":"0.00010853","REF_FRAME":"TEME","CENTER_NAME":"EARTH","PERIOD":"91.723","COUNTRY_CODE":"US","ARG_OF_PERICENTER":"274.5081","DECAY_DATE":null,"SEMIMAJOR_AXIS":"6737.194","CLASSIFICATION_TYPE":"U","ELEMENT_SET_NO":"999","MEAN_ELEMENT_THEORY":"SGP4","TIME_SYSTEM":"UTC","SITE":"AFWTR","PERIAPSIS":"356.329","LAUNCH_DATE":"2023-02-17","REV_AT_EPOCH":"1153","NORAD_CAT_ID":"55664","TLE_LINE1":"1 55664U 23021AN  23116.83711331  .00010853  00000-0  91828-4 0  9993","OBJECT_NAME":"STARLINK-5480","APOAPSIS":"361.788","ECCENTRICITY":"0.00040510","EPHEMERIS_TYPE":"0","OBJECT_TYPE":"PAYLOAD","FILE":"3894261","BSTAR":"0.00009182800000","MEAN_MOTION_DDOT":"0.0000000000000","GP_ID":"230803114","RCS_SIZE":"LARGE","RA_OF_ASC_NODE":"318.5528","INCLINATION":"69.9996","TLE_LINE2":"2 55664  69.9996 318.5528 0004051 274.5081  85.5652 15.69944225 11533"},{"CENTER_NAME":"EARTH","COUNTRY_CODE":"US","PERIOD":"91.723","MEAN_MOTION_DOT":"0.00014532","REF_FRAME":"TEME","EPOCH":"2023-04-26T20:04:59.727360","MEAN_ANOMALY":"76.3066","MEAN_MOTION":"15.69937471","OBJECT_ID":"2023-021AP","SITE":"AFWTR","PERIAPSIS":"356.186","LAUNCH_DATE":"2023-02-17","TIME_SYSTEM":"UTC","ELEMENT_SET_NO":"999","MEAN_ELEMENT_THEORY":"SGP4","ARG_OF_PERICENTER":"283.7652","DECAY_DATE":null,"SEMIMAJOR_AXIS":"6737.213","CLASSIFICATION_TYPE":"U","APOAPSIS":"361.970","ECCENTRICITY":"0.00042930","EPHEMERIS_TYPE":"0","FILE":"3894261","OBJECT_TYPE":"PAYLOAD","TLE_LINE1":"1 55665U 23021AP  23116.83680240  .00014532  00000-0  12233-3 0  9998","OBJECT_NAME":"STARLINK-5474","REV_AT_EPOCH":"1153","NORAD_CAT_ID":"55665","RA_OF_ASC_NODE":"318.5531","INCLINATION":"70.0032","TLE_LINE2":"2 55665  70.0032 318.5531 0004293 283.7652  76.3066 15.69937471 11538","MEAN_MOTION_DDOT":"0.0000000000000","GP_ID":"230803365","RCS_SIZE":"LARGE","BSTAR":"0.00012233000000"},{"MEAN_MOTION":"15.69940412","MEAN_ANOMALY":"84.6167","EPOCH":"2023-04-26T12:25:37.094880","OBJECT_ID":"2023-021AR","PERIOD":"91.723","COUNTRY_CODE":"US","CENTER_NAME":"EARTH","REF_FRAME":"TEME","MEAN_MOTION_DOT":"0.00008924","MEAN_ELEMENT_THEORY":"SGP4","ELEMENT_SET_NO":"999","CLASSIFICATION_TYPE":"U","SEMIMAJOR_AXIS":"6737.204","DECAY_DATE":null,"ARG_OF_PERICENTER":"275.4438","LAUNCH_DATE":"2023-02-17","PERIAPSIS":"355.583","SITE":"AFWTR","TIME_SYSTEM":"UTC","NORAD_CAT_ID":"55667","REV_AT_EPOCH":"1148","OBJECT_TYPE":"PAYLOAD","FILE":"3894260","EPHEMERIS_TYPE":"0","ECCENTRICITY":"0.00051750","APOAPSIS":"362.556","OBJECT_NAME":"STARLINK-5456","TLE_LINE1":"1 55667U 23021AR  23116.51779045  .00008924  00000-0  75830-4 0  9998","RCS_SIZE":"LARGE","GP_ID":"230776089","MEAN_MOTION_DDOT":"0.0000000000000","BSTAR":"0.00007583000000","TLE_LINE2":"2 55667  70.0068 319.4516 0005175 275.4438  84.6167 15.69940412 11489","INCLINATION":"70.0068","RA_OF_ASC_NODE":"319.4516"},{"MEAN_MOTION_DOT":"0.00172186","REF_FRAME":"TEME","CENTER_NAME":"EARTH","COUNTRY_CODE":"US","PERIOD":"91.656","OBJECT_ID":"2023-021AS","EPOCH":"2023-04-26T20:03:58.582944","MEAN_ANOMALY":"123.7188","MEAN_MOTION":"15.71088565","TIME_SYSTEM":"UTC","SITE":"AFWTR","PERIAPSIS":"351.355","LAUNCH_DATE":"2023-02-17","ARG_OF_PERICENTER":"236.3381","DECAY_DATE":null,"SEMIMAJOR_AXIS":"6733.922","CLASSIFICATION_TYPE":"U","ELEMENT_SET_NO":"999","MEAN_ELEMENT_THEORY":"SGP4","TLE_LINE1":"1 55668U 23021AS  23116.83609471  .00172186  00000-0  13373-2 0  9993","OBJECT_NAME":"STARLINK-5455","APOAPSIS":"360.218","ECCENTRICITY":"0.00065810","EPHEMERIS_TYPE":"0","FILE":"3894261","OBJECT_TYPE":"PAYLOAD","REV_AT_EPOCH":"1153","NORAD_CAT_ID":"55668","RA_OF_ASC_NODE":"318.5507","INCLINATION":"69.9978","TLE_LINE2":"2 55668  69.9978 318.5507 0006581 236.3381 123.7188 15.71088565 11531","BSTAR":"0.00133730000000","MEAN_MOTION_DDOT":"0.0000000000000","GP_ID":"230802363","RCS_SIZE":"LARGE"},{"MEAN_MOTION_DDOT":"0.0000000000000","GP_ID":"230802615","RCS_SIZE":"LARGE","BSTAR":"0.00018211000000","RA_OF_ASC_NODE":"318.5495","INCLINATION":"69.9958","TLE_LINE2":"2 55669  69.9958 318.5495 0002958 270.6341  89.4516 15.69963599 11536","REV_AT_EPOCH":"1153","NORAD_CAT_ID":"55669","ECCENTRICITY":"0.00029580","APOAPSIS":"360.996","EPHEMERIS_TYPE":"0","FILE":"3894261","OBJECT_TYPE":"PAYLOAD","TLE_LINE1":"1 55669U 23021AT  23116.83658871  .00021776  00000-0  18211-3 0  9997","OBJECT_NAME":"STARLINK-5459","ELEMENT_SET_NO":"999","MEAN_ELEMENT_THEORY":"SGP4","DECAY_DATE":null,"ARG_OF_PERICENTER":"270.6341","SEMIMAJOR_AXIS":"6737.138","CLASSIFICATION_TYPE":"U","SITE":"AFWTR","PERIAPSIS":"357.010","LAUNCH_DATE":"2023-02-17","TIME_SYSTEM":"UTC","EPOCH":"2023-04-26T20:04:41.264544","MEAN_ANOMALY":"89.4516","MEAN_MOTION":"15.69963599","OBJECT_ID":"2023-021AT","CENTER_NAME":"EARTH","PERIOD":"91.722","COUNTRY_CODE":"US","MEAN_MOTION_DOT":"0.00021776","REF_FRAME":"TEME"},{"ARG_OF_PERICENTER":"267.7200","DECAY_DATE":null,"SEMIMAJOR_AXIS":"6737.186","CLASSIFICATION_TYPE":"U","ELEMENT_SET_NO":"999","MEAN_ELEMENT_THEORY":"SGP4","TIME_SYSTEM":"UTC","SITE":"AFWTR","PERIAPSIS":"357.021","LAUNCH_DATE":"2023-02-17","OBJECT_ID":"2023-021AU","EPOCH":"2023-04-26T20:04:13.737504","MEAN_ANOMALY":"92.3651","MEAN_MOTION":"15.69946984","MEAN_MOTION_DOT":"0.00013640","REF_FRAME":"TEME","CENTER_NAME":"EARTH","PERIOD":"91.723","COUNTRY_CODE":"US","BSTAR":"0.00011492000000","MEAN_MOTION_DDOT":"0.0000000000000","GP_ID":"230802866","RCS_SIZE":"LARGE","RA_OF_ASC_NODE":"318.5532","INCLINATION":"69.9983","TLE_LINE2":"2 55670  69.9983 318.5532 0003012 267.7200  92.3651 15.69946984 11533","REV_AT_EPOCH":"1153","NORAD_CAT_ID":"55670","TLE_LINE1":"1 55670U 23021AU  23116.83627011  .00013640  00000-0  11492-3 0  9996","OBJECT_NAME":"STARLINK-5423","ECCENTRICITY":"0.00030120","APOAPSIS":"361.080","EPHEMERIS_TYPE":"0","OBJECT_TYPE":"PAYLOAD","FILE":"3894261"}];
